[Satellite]
VERSION=1.1
NAME=INSAT-3B
NICKNAME=INSAT-3B
TLE1=1 26108U 00016B   11056.62354734 -.00000184  00000-0  10000-3 0  1058
TLE2=2 26108   0.0363 266.5376 0007015  37.3275 158.6965  1.00270949 40046
